MOLNIYA 2-9             
1 07276U 74026A   22347.51424205  .00000175  00000+0  00000+0 0  9993
2 07276  64.2813 202.5130 6413650 278.9751  18.3114  2.45096335253606
MOLNIYA 2-10            
1 07376U 74056A   22349.39858945  .00001190  00000+0  00000+0 0  9995
2 07376  64.3824  75.9140 6767519 285.2518  13.7516  2.01153949354021
MOLNIYA 1-S             
1 07392U 74060A   22348.51814906  .00000157  00000+0  00000+0 0  9992
2 07392   4.6629 280.1993 0010485 217.0664 177.9493  1.00237631121339
MOLNIYA 1-29            
1 07780U 75036A   22348.12613110  .00000083  00000+0 -92900-1 0  9999
2 07780  63.4152 195.6133 6824664 287.9915  12.6680  2.00592999349251
MOLNIYA 2-14            
1 08195U 75081A   22346.82074417  .00000534  00000+0  00000+0 0  9994
2 08195  63.3863 169.0991 6745921 292.2464  11.9565  2.02054789346492
MOLNIYA 1-32            
1 08601U 76006A   22349.01286806  .00000951  00000+0  00000+0 0  9998
2 08601  63.5288 273.0082 7174251 283.8885  11.6377  2.00060620342617
MOLNIYA 1-36            
1 09880U 77021A   22349.15610796 -.00001329  00000+0  00000+0 0  9991
2 09880  63.4841 245.2360 7091192 289.5401  10.8173  2.00695128233082
MOLNIYA 3-8             
1 10455U 77105A   22347.92706900 -.00001555  00000+0 -28148-3 0  9999
2 10455  63.4326 330.6952 7339470 282.5287  10.7967  2.00599232330745
MOLNIYA 1-40            
1 10925U 78055A   22347.11983389 -.00000727  00000+0  00000+0 0  9997
2 10925  63.5323  22.6198 7272185 280.7297  11.6320  2.00698179326260
MOLNIYA 3-10            
1 11057U 78095A   22348.89566019 -.00000058  00000+0 -44327-5 0  9995
2 11057  63.2484 333.0214 5779549 311.7090  11.4939  4.09868100391136
MOLNIYA 3-13            
1 11896U 80063A   22348.38712290 -.00000078  00000+0  00000+0 0  9997
2 11896  62.7508 114.1085 7147217 276.5746  13.7048  2.00637265310706
MOLNIYA 1-49            
1 12156U 81009A   22347.57767371  .00000584  00000+0 -38241-3 0  9992
2 12156  61.6943 137.7352 7323816 265.1191  16.0357  2.05704179225173
MOLNIYA 1-52            
1 13012U 81123A   22346.87076179  .00001575  00000+0  12797-1 0  9998
2 13012  61.6367 253.0606 7205916 257.3016  20.4369  2.00539486300154
MOLNIYA 1-53            
1 13070U 82015A   22348.53320093 -.00000963  00000+0 -18048-1 0  9992
2 13070  62.5580 192.3045 6983390 283.0810  12.9923  2.00461955298875
MOLNIYA 3-20            
1 13875U 83015A   22347.52516133  .00000864  00000+0  18939-2 0  9994
2 13875  62.6316 324.3124 7387928 259.8297  17.5071  2.00826269227305
MOLNIYA 1-56            
1 13890U 83019A   22345.75440875  .00000706  00000+0  52566-3 0  9997
2 13890  62.9168 349.4530 7449291 265.6256  14.7346  2.00018754290149
MOLNIYA 1-63            
1 15429U 84124A   22347.42749956 -.00000764  00000+0  00000+0 0  9990
2 15429  63.7465 150.4349 6700892 258.3515  19.0531  2.00799040278345
MOLNIYA 3-24            
1 15738U 85040A   22347.32708494 -.00000158  00000+0 -10003-2 0  9997
2 15738  63.5975  49.0672 6856921 247.2333  30.1398  2.55629943308471
MOLNIYA 3-27            
1 16393U 85117A   22347.13678399 -.00000119  00000+0  00000+0 0  9998
2 16393  64.3072  57.8292 7044533 247.3221  27.7575  2.12398194277970
MOLNIYA 1-69            
1 17078U 86089A   22348.76202589  .00000864  00000+0  00000+0 0  9998
2 17078  64.0049 169.3246 6693832 256.6525  26.0186  2.00727687264461
MOLNIYA 3-31            
1 17328U 87008A   22347.38392793  .00000091  00000+0  00000+0 0  9994
2 17328  63.6792 106.9154 7124585 253.3237  23.2201  2.00683981259451
MOLNIYA 1-71            
1 18946U 88017A   22348.35190656 -.00000001  00000+0  00000+0 0  9996
2 18946  63.3562  99.6015 7236821 256.3234  20.4951  2.00576943254669
MOLNIYA 1-75            
1 19807U 89014A   22348.58834114 -.00000171  00000+0  00000+0 0  9998
2 19807  63.9798 265.0461 6795756 266.1050  20.3670  2.00559362247618
MOLNIYA 1-80            
1 21118U 91012A   22348.41810623 -.00001057  00000+0  00000+0 0  9992
2 21118  65.1929 313.4812 6745857 275.2997  17.0626  2.05249281234680
MOLNIYA 3-40            
1 21196U 91022A   22349.11812195  .00001044  00000+0  00000+0 0  9998
2 21196  65.0786 307.0940 6773013 272.1499  18.0309  2.02998536233325
MOLNIYA 1-81            
1 21426U 91043A   22345.47879046 -.00000197  00000+0  00000+0 0  9999
2 21426  64.0210 321.6463 7072117 266.0330  17.8513  2.00623867230712
MOLNIYA 3-41            
1 21706U 91065A   22348.48293406 -.00000689  00000+0  00000+0 0  9994
2 21706  64.0926 146.1251 6913928 254.2163  25.0383  2.04362257230542
MOLNIYA 3-42            
1 22178U 92067A   22343.45020783  .00000200  00000+0  00000+0 0  9997
2 22178  64.6728 197.6154 6419019 264.1779  24.7466  2.20434543 83911
MOLNIYA 1-86            
1 22671U 93035A   22348.90233390  .00000103  00000+0  96612-4 0  9997
2 22671  63.0853 131.8891 4861280  10.0105 356.9395  5.62762585362403
MOLNIYA 1-87            
1 22949U 93079A   22348.47449339  .00001195  00000+0  00000+0 0  9990
2 22949  64.1655  71.5091 6912427 283.2185  13.3880  2.02852003212930
MOLNIYA 1-88            
1 23420U 94081A   22348.46667012  .00000128  00000+0  00000+0 0  9993
2 23420  64.2817 156.1151 5795344 279.6854  22.7820  3.34495326252963
MOLNIYA 3-47            
1 23642U 95042A   22347.52059746 -.00000128  00000+0  00000+0 0  9993
2 23642  64.2983  53.1649 6955055 283.4856  13.0101  2.01925114200632
MOLNIYA 1-90            
1 24960U 97054A   22349.46150011  .00000117  00000+0  18126-2 0  9992
2 24960  63.6888 121.7935 6097796 297.3750  14.1576  3.18687447213858
MOLNIYA 1-91            
1 25485U 98054A   22348.58947337  .00000168  00000+0  22925-2 0  9991
2 25485  63.1102 122.2237 6771539 291.8593  18.9329  2.36442082182647
MOLNIYA 3-50            
1 25847U 99036A   22347.92926287 -.00000421  00000+0 -28525-2 0  9998
2 25847  63.2876 307.0897 7331056 282.5011  10.9232  2.00659377171711
